[{"OBJECT_NAME":"LEMUR-2-FURIAUS","OBJECT_ID":"2017-042R","EPOCH":"2026-03-09T23:04:27.745536","MEAN_MOTION":15.26272951,"ECCENTRICITY":0.00075374,"INCLINATION":97.3753,"RA_OF_ASC_NODE":248.499,"ARG_OF_PERICENTER":55.8686,"MEAN_ANOMALY":304.3266,"EPHEMERIS_TYPE":0,"CLASSIFICATION_TYPE":"U","NORAD_CAT_ID":42840,"ELEMENT_SET_NO":999,"REV_AT_EPOCH":47305,"BSTAR":0.00099966194,"MEAN_MOTION_DOT":0.00025928,"MEAN_MOTION_DDOT":0},{"OBJECT_NAME":"STARLINK-31797","OBJECT_ID":"2024-082D","EPOCH":"2026-03-09T13:32:05.203968","MEAN_MOTION":15.27570618,"ECCENTRICITY":0.0001214,"INCLINATION":43.0006,"RA_OF_ASC_NODE":140.4405,"ARG_OF_PERICENTER":261.4726,"MEAN_ANOMALY":98.5988,"EPHEMERIS_TYPE":0,"CLASSIFICATION_TYPE":"U","NORAD_CAT_ID":59634,"ELEMENT_SET_NO":999,"REV_AT_EPOCH":10483,"BSTAR":-6.9527e-6,"MEAN_MOTION_DOT":-4.53e-6,"MEAN_MOTION_DDOT":0}]
